{"fetched_at":"2026-03-29T16:36:15Z","count":15609,"tles":[{"name":"STARLINK-32043","line1":"1 60135U 24120A   26087.80386715  .00004756  00000+0  17250-3 0  9994","line2":"2 60135  53.1608 231.0667 0001233 113.9279 246.1851 15.30216983 99302","category":"Starlink"}]}