{
  "norad_id": 60135,
  "name": "STARLINK-32043",
  "history": [
    {
      "epoch": "2026-03-28T19:17:34.121760",
      "apogee_km": 476.0095108354408,
      "perigee_km": 474.3192125875885,
      "latitude_deg": 52.69282944961406,
      "longitude_deg": -89.32875360012986,
      "semi_major_axis_km": 6853.301361711515,
      "eccentricity": 0.00012332,
      "inclination_deg": 53.1608,
      "raan_deg": 231.0667,
      "arg_perigee_deg": 113.9279,
      "mean_anomaly_deg": 246.1851,
      "mean_motion_rev_day": 15.30216983
    }
  ]
}